*******************************************************************************
Ephemeris / WWW_USER Mon Mar 26 19:43:57 2018 Pasadena, USA      / Horizons    
*******************************************************************************
Target body name: Amalthea (505)                  {source: jup310}
Center body name: Jupiter Barycenter (5)          {source: DE431mx}
Center-site name: BODY CENTER
*******************************************************************************
Start time      : A.D. 2000-Jan-01 00:00:00.0000 TDB
Stop  time      : A.D. 2001-Jan-01 00:00:00.0000 TDB
Step-size       : 7200 minutes
*******************************************************************************
Center geodetic : 0.00000000,0.00000000,0.0000000 {E-lon(deg),Lat(deg),Alt(km)}
Center cylindric: 0.00000000,0.00000000,0.0000000 {E-lon(deg),Dxy(km),Dz(km)}
Center radii    : (undefined)                                                  
Output units    : AU-D                                                         
Output type     : GEOMETRIC cartesian states
Output format   : 2 (position and velocity)
Reference frame : ICRF/J2000.0                                                 
Coordinate systm: Ecliptic and Mean Equinox of Reference Epoch                 
*******************************************************************************
JDTDB
   X     Y     Z
   VX    VY    VZ
*******************************************************************************
$$SOE
2451544.500000000 = A.D. 2000-Jan-01 00:00:00.0000 TDB 
   7.744471336212937E-04  9.278286903673684E-04  5.096559589679434E-05
  -1.179796503459243E-02  9.778956392348366E-03  1.179977862535278E-04
2451549.500000000 = A.D. 2000-Jan-06 00:00:00.0000 TDB 
   5.428035839845272E-04  1.079811540895955E-03  5.035101643730239E-05
  -1.371339045990931E-02  6.839488863645584E-03 -4.460565246279983E-05
2451554.500000000 = A.D. 2000-Jan-11 00:00:00.0000 TDB 
   2.811738767897365E-04  1.176226633742292E-03  4.657662212403992E-05
  -1.490852584745505E-02  3.539648902100398E-03 -1.919432244745443E-04
2451559.500000000 = A.D. 2000-Jan-16 00:00:00.0000 TDB 
   6.377099159752838E-06  1.208948743649090E-03  4.025981300411821E-05
  -1.532176013246930E-02  5.446830019258565E-05 -3.145534976086496E-04
2451564.500000000 = A.D. 2000-Jan-21 00:00:00.0000 TDB 
  -2.683036594092897E-04  1.177861939518211E-03  3.228069802699237E-05
  -1.492864887752070E-02 -3.434690088130749E-03 -4.072151118679998E-04
2451569.500000000 = A.D. 2000-Jan-26 00:00:00.0000 TDB 
  -5.305448248212884E-04  1.087464179733473E-03  2.354522441454930E-05
  -1.375473736138333E-02 -6.744581722793417E-03 -4.689922101028670E-04
2451574.500000000 = A.D. 2000-Jan-31 00:00:00.0000 TDB 
  -7.646104205051267E-04  9.384830927813603E-04  1.463894224105435E-05
  -1.185680329745552E-02 -9.699844212912576E-03 -5.022625386614081E-04
2451579.500000000 = A.D. 2000-Feb-05 00:00:00.0000 TDB 
  -9.564311449121756E-04  7.382953162683558E-04  6.058488918329200E-06
  -9.333845174831880E-03 -1.214397857147524E-02 -5.117498939225410E-04
2451584.500000000 = A.D. 2000-Feb-10 00:00:00.0000 TDB 
  -1.100033595313627E-03  5.019344048025208E-04 -1.847402161953332E-06
  -6.322582247725458E-03 -1.395259702779846E-02 -5.031295449317482E-04
2451589.500000000 = A.D. 2000-Feb-15 00:00:00.0000 TDB 
  -1.186638558856812E-03  2.390897652488197E-04 -9.120690548018731E-06
  -2.978742378827546E-03 -1.502776465960074E-02 -4.809845723021774E-04
2451594.500000000 = A.D. 2000-Feb-20 00:00:00.0000 TDB 
  -1.208437820520021E-03 -3.842598614369939E-05 -1.590790437341631E-05
   5.227675430495123E-04 -1.531239223459983E-02 -4.481625607633937E-04
2451599.500000000 = A.D. 2000-Feb-25 00:00:00.0000 TDB 
  -1.167769290730702E-03 -3.125607790890685E-04 -2.227902610324961E-05
   3.996865201308125E-03 -1.479233721847962E-02 -4.052631883709690E-04
2451604.500000000 = A.D. 2000-Mar-01 00:00:00.0000 TDB 
  -1.066892693940022E-03 -5.688014908674179E-04 -2.830835163684567E-05
   7.260251265125729E-03 -1.349506703730441E-02 -3.506963464926806E-04
2451609.500000000 = A.D. 2000-Mar-06 00:00:00.0000 TDB 
  -9.085305109743745E-04 -7.973895363286134E-04 -3.402261206416978E-05
   1.014342787076142E-02 -1.148813665774358E-02 -2.815497959778889E-04
2451614.500000000 = A.D. 2000-Mar-11 00:00:00.0000 TDB 
  -7.020506968149092E-04 -9.844857326579766E-04 -3.909205165717058E-05
   1.249533601466519E-02 -8.878497269098985E-03 -1.949904525960303E-04
2451619.500000000 = A.D. 2000-Mar-16 00:00:00.0000 TDB 
  -4.604513936824810E-04 -1.116918083475293E-03 -4.296429492457121E-05
   1.418896112004750E-02 -5.803300060076096E-03 -8.963232245174213E-05
2451624.500000000 = A.D. 2000-Mar-21 00:00:00.0000 TDB 
  -1.943403636964591E-04 -1.192177914323284E-03 -4.517304434636203E-05
   1.513644431000520E-02 -2.422718388328329E-03  3.337030762583712E-05
2451629.500000000 = A.D. 2000-Mar-26 00:00:00.0000 TDB 
   8.403246917238802E-05 -1.206403149083792E-03 -4.509328797482422E-05
   1.529117443497043E-02  1.085845568350435E-03  1.693051062591843E-04
2451634.500000000 = A.D. 2000-Mar-31 00:00:00.0000 TDB 
   3.561414833489692E-04 -1.154705683174563E-03 -4.213337180159951E-05
   1.464053185298003E-02  4.535323236011879E-03  3.097450709480486E-04
2451639.500000000 = A.D. 2000-Apr-05 00:00:00.0000 TDB 
   6.089355479647540E-04 -1.042764314210894E-03 -3.611248900279187E-05
   1.322193934229188E-02  7.746912342189590E-03  4.436170153255054E-04
2451644.500000000 = A.D. 2000-Apr-10 00:00:00.0000 TDB 
   8.317611092971227E-04 -8.781651804962547E-04 -2.713594551427434E-05
   1.110903919778228E-02  1.055264553873115E-02  5.581554399822881E-04
2451649.500000000 = A.D. 2000-Apr-15 00:00:00.0000 TDB 
   1.009805028425574E-03 -6.661804979109567E-04 -1.556963156486928E-05
   8.411675348442494E-03  1.280182795425935E-02  6.407117718333575E-04
2451654.500000000 = A.D. 2000-Apr-20 00:00:00.0000 TDB 
   1.133713441884096E-03 -4.174631868231953E-04 -2.200526027529141E-06
   5.271570625652924E-03  1.438041978896216E-02  6.810864073183090E-04
2451659.500000000 = A.D. 2000-Apr-25 00:00:00.0000 TDB 
   1.199465259088303E-03 -1.492509227036850E-04  1.176847045830541E-05
   1.855377213781592E-03  1.520426709541679E-02  6.728334696306461E-04
2451664.500000000 = A.D. 2000-Apr-30 00:00:00.0000 TDB 
   1.202872677619244E-03  1.262625866391113E-04  2.516850561627837E-05
  -1.656804762966475E-03  1.523135604939737E-02  6.146761532497433E-04
2451669.500000000 = A.D. 2000-May-05 00:00:00.0000 TDB 
   1.141129517652340E-03  3.981139853017233E-04  3.687740336678756E-05
  -5.084163750788647E-03  1.445676074223445E-02  5.106273787035713E-04
2451674.500000000 = A.D. 2000-May-10 00:00:00.0000 TDB 
   1.019777974324147E-03  6.471818696591951E-04  4.572817857628268E-05
  -8.242976169208436E-03  1.292316495307680E-02  3.700862395202978E-04
2451679.500000000 = A.D. 2000-May-15 00:00:00.0000 TDB 
   8.466664893638148E-04  8.609624713823376E-04  5.104495224314577E-05
  -1.096852638347896E-02  1.071254285433189E-02  2.061722042528431E-04
2451684.500000000 = A.D. 2000-May-20 00:00:00.0000 TDB 
   6.273503336483400E-04  1.032239716847137E-03  5.261645689474463E-05
  -1.311925999150524E-02  7.937057116399238E-03  3.386683125260938E-05
2451689.500000000 = A.D. 2000-May-25 00:00:00.0000 TDB 
   3.749189271138554E-04  1.148981679093458E-03  5.047606991752925E-05
  -1.458194664771651E-02  4.745579838662644E-03 -1.316757301989490E-04
2451694.500000000 = A.D. 2000-May-30 00:00:00.0000 TDB 
   1.045271976643269E-04  1.203081121734667E-03  4.506768659268983E-05
  -1.527642510569131E-02  1.304435598827455E-03 -2.774102569191529E-04
2451699.500000000 = A.D. 2000-Jun-04 00:00:00.0000 TDB 
  -1.721587198369378E-04  1.195090970258999E-03  3.725899443376642E-05
  -1.516886543121736E-02 -2.206954156961142E-03 -3.940027435529139E-04
2451704.500000000 = A.D. 2000-Jun-09 00:00:00.0000 TDB 
  -4.410493376236014E-04  1.126248985569147E-03  2.798500774436947E-05
  -1.426697841794396E-02 -5.603040273825785E-03 -4.764128309065735E-04
2451709.500000000 = A.D. 2000-Jun-14 00:00:00.0000 TDB 
  -6.855874140902331E-04  9.957487677474020E-04  1.802926214360099E-05
  -1.261478437797841E-02 -8.704750044869290E-03 -5.240274642631780E-04
2451714.500000000 = A.D. 2000-Jun-19 00:00:00.0000 TDB 
  -8.932280676536003E-04  8.126140491493756E-04  8.234789382995572E-06
  -1.029933286821538E-02 -1.134944127484268E-02 -5.400831256752722E-04
2451719.500000000 = A.D. 2000-Jun-24 00:00:00.0000 TDB 
  -1.055824621162666E-03  5.897066679784168E-04 -7.817259068295375E-07
  -7.443953657385739E-03 -1.339792016790139E-02 -5.302435944821950E-04
2451724.500000000 = A.D. 2000-Jun-29 00:00:00.0000 TDB 
  -1.162368407084390E-03  3.336849523967013E-04 -8.879014368430539E-06
  -4.196316505919006E-03 -1.474235287279514E-02 -5.010151465330920E-04
2451729.500000000 = A.D. 2000-Jul-04 00:00:00.0000 TDB 
  -1.206404458076654E-03  5.872868443784054E-05 -1.598446029514421E-05
  -7.270591168170316E-04 -1.531114276472840E-02 -4.582546668189891E-04
2451734.500000000 = A.D. 2000-Jul-09 00:00:00.0000 TDB 
  -1.188930152707305E-03 -2.165977482708461E-04 -2.211301994037955E-05
   2.779270671746173E-03 -1.507805615268321E-02 -4.061630944966750E-04
2451739.500000000 = A.D. 2000-Jul-14 00:00:00.0000 TDB 
  -1.108952568093911E-03 -4.806250361311230E-04 -2.751692633689084E-05
   6.139767529472206E-03 -1.405076129632473E-02 -3.462148628399896E-04
2451744.500000000 = A.D. 2000-Jul-19 00:00:00.0000 TDB 
  -9.691873165412045E-04 -7.216802151576043E-04 -3.239441678318690E-05
   9.178414338590516E-03 -1.228363752763942E-02 -2.778106614738181E-04
2451749.500000000 = A.D. 2000-Jul-24 00:00:00.0000 TDB 
  -7.789407522003199E-04 -9.235939337161019E-04 -3.663708259865691E-05
   1.173607367533970E-02 -9.872805211466077E-03 -1.989412402318914E-04
